CCSDS_OMM_VERS = 2.0
CREATION_DATE  = 
ORIGINATOR     = 

OBJECT_NAME    = 2026-027B
OBJECT_ID      = 2026-027B
CENTER_NAME    = EARTH
REF_FRAME      = TEME
TIME_SYSTEM    = UTC
MEAN_ELEMENT_THEORY = SGP/SGP4

EPOCH          = 2026-02-13T07:18:59.868576
MEAN_MOTION    = 15.17327420
ECCENTRICITY   = .0009453
INCLINATION    = 97.4862
RA_OF_ASC_NODE = 173.5890
ARG_OF_PERICENTER = 289.2122
MEAN_ANOMALY   = 70.8088

EPHEMERIS_TYPE = 0
CLASSIFICATION_TYPE = U
NORAD_CAT_ID   = 67747
ELEMENT_SET_NO = 999
REV_AT_EPOCH   = 16
BSTAR          = .52613884E-3
MEAN_MOTION_DOT = .10445E-3
MEAN_MOTION_DDOT = 0

CCSDS_OMM_VERS = 2.0
CREATION_DATE  = 
ORIGINATOR     = 

OBJECT_NAME    = 2027-027C
OBJECT_ID      = 2027-027C
CENTER_NAME    = EARTH
REF_FRAME      = TEME
TIME_SYSTEM    = UTC
MEAN_ELEMENT_THEORY = SGP/SGP4

EPOCH          = 2026-02-13T07:18:50.900256
MEAN_MOTION    = 15.17477546
ECCENTRICITY   = .00098803
INCLINATION    = 97.4874
RA_OF_ASC_NODE = 173.5895
ARG_OF_PERICENTER = 292.5389
MEAN_ANOMALY   = 67.4798

EPHEMERIS_TYPE = 0
CLASSIFICATION_TYPE = U
NORAD_CAT_ID   = 67748
ELEMENT_SET_NO = 999
REV_AT_EPOCH   = 16
BSTAR          = .36375644E-3
MEAN_MOTION_DOT = .7229E-4
MEAN_MOTION_DDOT = 0

CCSDS_OMM_VERS = 2.0
CREATION_DATE  = 
ORIGINATOR     = 

OBJECT_NAME    = 2026-027D
OBJECT_ID      = 2026-027D
CENTER_NAME    = EARTH
REF_FRAME      = TEME
TIME_SYSTEM    = UTC
MEAN_ELEMENT_THEORY = SGP/SGP4

EPOCH          = 2026-02-13T05:43:46.727328
MEAN_MOTION    = 15.17609291
ECCENTRICITY   = .00097756
INCLINATION    = 97.4870
RA_OF_ASC_NODE = 173.5245
ARG_OF_PERICENTER = 296.9729
MEAN_ANOMALY   = 63.0506

EPHEMERIS_TYPE = 0
CLASSIFICATION_TYPE = U
NORAD_CAT_ID   = 67749
ELEMENT_SET_NO = 999
REV_AT_EPOCH   = 15
BSTAR          = .5172491E-3
MEAN_MOTION_DOT = .10351E-3
MEAN_MOTION_DDOT = 0

CCSDS_OMM_VERS = 2.0
CREATION_DATE  = 
ORIGINATOR     = 

OBJECT_NAME    = 2026-027E
OBJECT_ID      = 2026-027E
CENTER_NAME    = EARTH
REF_FRAME      = TEME
TIME_SYSTEM    = UTC
MEAN_ELEMENT_THEORY = SGP/SGP4

EPOCH          = 2026-02-13T07:18:42.682752
MEAN_MOTION    = 15.17629826
ECCENTRICITY   = .00088876
INCLINATION    = 97.4880
RA_OF_ASC_NODE = 173.5902
ARG_OF_PERICENTER = 298.8553
MEAN_ANOMALY   = 61.1788

EPHEMERIS_TYPE = 0
CLASSIFICATION_TYPE = U
NORAD_CAT_ID   = 67750
ELEMENT_SET_NO = 999
REV_AT_EPOCH   = 16
BSTAR          = .48788879E-3
MEAN_MOTION_DOT = .9763E-4
MEAN_MOTION_DDOT = 0

CCSDS_OMM_VERS = 2.0
CREATION_DATE  = 
ORIGINATOR     = 

OBJECT_NAME    = 2026-027F
OBJECT_ID      = 2026-027F
CENTER_NAME    = EARTH
REF_FRAME      = TEME
TIME_SYSTEM    = UTC
MEAN_ELEMENT_THEORY = SGP/SGP4

EPOCH          = 2026-02-13T07:18:40.760352
MEAN_MOTION    = 15.17663385
ECCENTRICITY   = .00099777
INCLINATION    = 97.4881
RA_OF_ASC_NODE = 173.5900
ARG_OF_PERICENTER = 297.0904
MEAN_ANOMALY   = 62.9312

EPHEMERIS_TYPE = 0
CLASSIFICATION_TYPE = U
NORAD_CAT_ID   = 67751
ELEMENT_SET_NO = 999
REV_AT_EPOCH   = 16
BSTAR          = .83637014E-3
MEAN_MOTION_DOT = .1682E-3
MEAN_MOTION_DDOT = 0

CCSDS_OMM_VERS = 2.0
CREATION_DATE  = 
ORIGINATOR     = 

OBJECT_NAME    = 2026-027G
OBJECT_ID      = 2026-027G
CENTER_NAME    = EARTH
REF_FRAME      = TEME
TIME_SYSTEM    = UTC
MEAN_ELEMENT_THEORY = SGP/SGP4

EPOCH          = 2026-02-13T07:18:37.955808
MEAN_MOTION    = 15.17711096
ECCENTRICITY   = .00092076
INCLINATION    = 97.4875
RA_OF_ASC_NODE = 173.5897
ARG_OF_PERICENTER = 300.5233
MEAN_ANOMALY   = 59.5091

EPHEMERIS_TYPE = 0
CLASSIFICATION_TYPE = U
NORAD_CAT_ID   = 67752
ELEMENT_SET_NO = 999
REV_AT_EPOCH   = 16
BSTAR          = .53197054E-3
MEAN_MOTION_DOT = .10678E-3
MEAN_MOTION_DDOT = 0

CCSDS_OMM_VERS = 2.0
CREATION_DATE  = 
ORIGINATOR     = 

OBJECT_NAME    = 2026-027H
OBJECT_ID      = 2026-027H
CENTER_NAME    = EARTH
REF_FRAME      = TEME
TIME_SYSTEM    = UTC
MEAN_ELEMENT_THEORY = SGP/SGP4

EPOCH          = 2026-02-12T06:37:35.999904
MEAN_MOTION    = 15.90584976
ECCENTRICITY   = .0003745
INCLINATION    = 97.0063
RA_OF_ASC_NODE = 170.7950
ARG_OF_PERICENTER = 176.5263
MEAN_ANOMALY   = 360.0000

EPHEMERIS_TYPE = 0
CLASSIFICATION_TYPE = U
NORAD_CAT_ID   = 67753
ELEMENT_SET_NO = 999
REV_AT_EPOCH   = 0
BSTAR          = 0
MEAN_MOTION_DOT = -.649E-5
MEAN_MOTION_DDOT = .2052363E-5

CCSDS_OMM_VERS = 2.0
CREATION_DATE  = 
ORIGINATOR     = 

OBJECT_NAME    = 2026-027J
OBJECT_ID      = 2026-027J
CENTER_NAME    = EARTH
REF_FRAME      = TEME
TIME_SYSTEM    = UTC
MEAN_ELEMENT_THEORY = SGP/SGP4

EPOCH          = 2026-02-12T16:48:24.947136
MEAN_MOTION    = 15.55912552
ECCENTRICITY   = .02793864
INCLINATION    = 97.5075
RA_OF_ASC_NODE = 173.0535
ARG_OF_PERICENTER = 337.7593
MEAN_ANOMALY   = 21.1730

EPHEMERIS_TYPE = 0
CLASSIFICATION_TYPE = U
NORAD_CAT_ID   = 67754
ELEMENT_SET_NO = 999
REV_AT_EPOCH   = 1
BSTAR          = .48805826E-3
MEAN_MOTION_DOT = .232317E-2
MEAN_MOTION_DDOT = .2233841E-5

