2026-027B               
1 67747U 26027B   26044.30485959  .00010445  00000+0  52614-3 0  9991
2 67747  97.4862 173.5890 0009453 289.2122  70.8088 15.17327420   169
2027-027C               
1 67748U 27027C   26044.30475579  .00007229  00000+0  36376-3 0  9993
2 67748  97.4874 173.5895 0009880 292.5389  67.4798 15.17477546   169
2026-027D               
1 67749U 26027D   26044.23873527  .00010351  00000+0  51725-3 0  9995
2 67749  97.4870 173.5245 0009775 296.9729  63.0506 15.17609291   156
2026-027E               
1 67750U 26027E   26044.30466068  .00009763  00000+0  48789-3 0  9994
2 67750  97.4880 173.5902 0008887 298.8553  61.1788 15.17629826   166
2026-027F               
1 67751U 26027F   26044.30463843  .00016820  00000+0  83637-3 0  9996
2 67751  97.4881 173.5900 0009977 297.0904  62.9312 15.17663385   168
2026-027G               
1 67752U 26027G   26044.30460597  .00010678  00000+0  53197-3 0  9993
2 67752  97.4875 173.5897 0009207 300.5233  59.5091 15.17711096   167
2026-027H               
1 67753U 26027H   26043.27611111 -.00000649  20524-5  00000+0 0  9997
2 67753  97.0063 170.7950 0003745 176.5263 360.0000 15.90584976    06
2026-027J               
1 67754U 26027J   26043.70028874  .00232317  22338-5  48806-3 0  9997
2 67754  97.5075 173.0535 0279386 337.7593  21.1730 15.55912552    15
